# From MPEC 2022-S20
C/1995 O1 (Hale-Bopp),e,89.6360,281.9519,130.4251,179.8788,0.0004085,0.99492161,0.0000,03/30.4168/1997,2000,g -2.0,4.0
# From NK 1615
P/1996 R2 (Lagerkvist),e,2.5990,40.0371,333.5123,3.771509,0.1345648,0.31406121,342.9431,02/09.0/2026,2000,g 11.5,4.0
# From MPC 73460
C/1997 BA6 (Spacewatch),e,72.6934,317.7907,286.0693,2923,0.0000062,0.99881554,0.0000,11/16.2212/1999,2000,g 10.0,2.0
# From MPC 75703
P/1998 VS24 (LINEAR),e,5.0302,159.0324,244.9394,4.519440,0.1025834,0.24342051,300.8914,02/09.0/2026,2000,g 13.0,2.0
# From MPC 73461
C/1999 F1 (Catalina),e,91.8750,19.9608,255.3253,20268,0.0000003,0.99971320,0.0000,01/31.0929/2002,2000,g  9.5,2.0
# From MPC186628
C/1999 J2 (Skiff),h,04/09.6060/2000,86.4015,50.2633,126.9630,1.000772,7.069940,2000,2.0,4.0
# From NK 731
P/1999 RO28 (LONEOS),e,7.5673,137.8387,231.3637,3.425655,0.1554493,0.67221970,15.8076,02/09.0/2026,2000,g 20.0,2.0
# From MPC 43758
C/1999 S2 (McNaught-Watson),h,11/06.5548/1997,65.6346,74.4447,223.4706,1.002277,6.503083,2000,2.0,4.0
# From MPC 75704
P/1999 XN120 (Catalina),e,5.0297,285.2390,161.4579,4.191511,0.1148545,0.21315882,5.7643,02/09.0/2026,2000,g 13.5,2.0
# From NK 744
P/2000 R2 (LINEAR),e,11.6793,160.2683,176.5818,3.468149,0.1526010,0.53051954,10.4843,02/09.0/2026,2000,g 18.0,4.0
# From MPC 43019
P/2001 H5 (NEAT),e,8.3728,328.6848,224.5818,6.093121,0.0655306,0.59972262,247.5923,02/09.0/2026,2000,g 12.0,4.0
# From MPC 46619
C/2001 M10 (NEAT),e,27.9934,293.9625,5.6022,26.71818,0.0071366,0.79926165,64.3552,02/09.0/2026,2000,g  8.0,4.0
# From MPEC 2015-N31
C/2002 A1 (LINEAR),e,14.0786,81.0445,18.7240,16.04144,0.0153405,0.70975545,135.5497,02/09.0/2026,2000,g 12.5,2.0
# From MPC 89006
C/2002 A2 (LINEAR),e,14.0326,81.0112,19.1193,15.89642,0.0155509,0.70742807,137.2992,02/09.0/2026,2000,g 11.0,2.0
# From MPC 45962
C/2002 B1 (LINEAR),e,51.0299,58.2607,76.0918,9.873981,0.0317662,0.77055155,276.7610,02/09.0/2026,2000,g 11.5,4.0
# From MPC188408
C/2002 CE10 (LINEAR),e,145.3718,147.5644,126.2448,9.765535,0.0322968,0.78949272,266.8078,02/09.0/2026,2000,g 13.0,2.0
# From MPEC 2023-UR6
P/2002 EJ57 (LINEAR),e,4.9913,330.2188,167.3004,6.454437,0.0601058,0.59419563,167.6560,02/09.0/2026,2000,g 12.5,4.0
# From MPEC 2015-N31
C/2002 L9 (NEAT),h,04/02.2183/2004,68.2205,110.4979,231.5824,1.000433,7.073811,2000,8.5,2.0
# From MPC 75007
C/2002 VQ94 (LINEAR),e,70.6156,35.0468,99.8164,187.5873,0.0003836,0.96401322,2.8008,02/09.0/2026,2000,g  9.5,2.0
# From MPC186628
C/2003 A2 (Gleason),e,8.0713,154.4538,346.5596,8519,0.0000013,0.99866602,0.0000,11/08.8552/2003,2000,g  3.5,4.0
# From MPC 51182
C/2003 E1 (NEAT),e,33.4702,137.1236,103.9182,13.77244,0.0192836,0.76209628,155.3609,02/09.0/2026,2000,g 12.5,2.0
# From MPC 50354
P/2003 F2 (NEAT),e,11.5738,358.9644,193.1092,6.555374,0.0587230,0.53599885,134.0684,02/09.0/2026,2000,g 16.5,2.0
# From unp
P/2003 L1 (Scotti),e,9.0459,225.8187,355.0587,6.693928,0.0569092,0.25190949,116.0265,02/09.0/2026,2000,g  9.5,4.0
# From MPC105235
P/2003 T12 (SOHO),e,11.0202,174.5687,219.8058,2.584274,0.2372445,0.77002596,138.8697,02/09.0/2026,2000,g 17.0,4.0
# From MPC 57131
C/2004 B1 (LINEAR),h,02/07.8698/2006,113.9149,273.3319,328.1132,1.000948,1.601089,2000,10.5,2.0
# From MPC 51368
C/2004 C1 (Larsen),e,28.8625,151.9549,315.9683,11.62433,0.0248686,0.62580256,359.9917,03/19.0/2003,2000,g 13.5,2.0
# From MPEC 2022-YN2
P/2004 FY140 (LINEAR),e,2.1628,327.2624,254.3331,4.968387,0.0889982,0.19290550,326.3024,02/09.0/2026,2000,g 12.5,2.0
# From MPC 53304
P/2004 R3 (LINEAR-NEAT),e,12.8056,305.1244,37.0144,4.743793,0.0953928,0.25500624,153.4311,02/09.0/2026,2000,g 14.5,4.0
# From MPC 53465
C/2004 T3 (Siding Spring),e,71.7810,50.3538,259.8462,36477,0.0000001,0.99975581,0.0000,04/04.1128/2003,2000,g  2.5,4.0
# From MPC 75705
P/2004 V5 (LINEAR-Hill),e,19.3290,47.7337,87.1443,8.056446,0.0431011,0.44968404,336.6203,02/09.0/2026,2000,g  8.0,4.0
# From unp
P/2004 V5-A (LINEAR-Hill),e,19.3324,47.7607,87.1092,8.057286,0.0430944,0.44976850,336.6344,02/09.0/2026,2000,g  8.0,4.0
# From MPC 75705
P/2004 V5-B (LINEAR-Hill),e,19.3292,47.7342,87.1489,8.056641,0.0430996,0.44969771,336.5791,02/09.0/2026,2000,g  8.0,4.0
# From MPC 54164
P/2005 E1 (Tubbiolo),e,4.2607,335.4832,193.9741,7.074056,0.0523843,0.37760514,45.2843,02/09.0/2026,2000,g 10.0,4.0
# From MPC 74246
P/2005 L1 (McNaught),e,10.3300,123.7192,167.4957,3.831004,0.1314423,0.28546654,185.0121,02/09.0/2026,2000,g  9.5,4.0
# From MPC 87062
C/2005 L3 (McNaught),e,139.3135,288.7781,46.9630,3889,0.0000041,0.99856643,0.0000,01/14.0389/2008,2000,g  4.0,4.0
# From MPC 75706
P/2005 S2 (Skiff),e,3.1395,161.3258,230.0809,7.980894,0.0437146,0.19816449,312.6449,02/09.0/2026,2000,g  7.5,4.0
# From MPC 73461
P/2005 T3 (Read),e,6.2337,27.6186,7.1849,7.566719,0.0473525,0.17357471,350.8503,02/09.0/2026,2000,g  9.0,4.0
# From MPC 75707
P/2006 HR30 (Siding Spring),e,31.9669,309.7448,117.5297,7.793425,0.0453014,0.84351681,315.8992,02/09.0/2026,2000,g 11.0,4.0
# From MPEC 2022-L66
C/2006 S3 (LONEOS),h,04/16.4001/2012,166.0456,38.5296,140.1277,1.000632,5.117600,2000,2.0,4.0
# From MPC 84315
C/2007 D1 (LINEAR),e,41.5188,170.9793,339.8219,1314,0.0000207,0.99335023,0.0000,06/16.3439/2007,2000,g  3.5,4.0
# From MPEC 2024-GJ3
P/2007 K2 (Gibbs),e,7.5868,188.2893,347.0348,7.404688,0.0489152,0.68706753,342.8289,02/09.0/2026,2000,g 14.0,4.0
# From MPC 73462
P/2007 S1 (Zhao),e,5.9625,141.3204,245.2849,3.819337,0.1320451,0.33762809,161.3604,02/09.0/2026,2000,g 13.0,4.0
# From MPEC 2024-GJ3
C/2007 S2 (Lemmon),e,16.9213,296.1350,210.1514,12.49195,0.0223233,0.55748425,142.0177,02/09.0/2026,2000,g  6.5,4.0
# From MPEC 2024-GJ3
C/2008 E1 (Catalina),e,34.8636,188.8730,270.4307,10.76369,0.0279102,0.55293229,177.9662,02/09.0/2026,2000,g  7.0,4.0
# From MPC 95207
C/2008 S3 (Boattini),h,06/09.3589/2011,162.7417,55.0241,40.1970,1.001876,8.055583,2000,4.0,4.0
# From MPC 75710
P/2008 Y3 (McNaught),e,38.7806,262.8253,238.2006,8.033417,0.0432866,0.44866852,270.6346,02/09.0/2026,2000,g  8.5,4.0
# From MPC 75710
P/2009 B1 (Boattini),e,22.2597,297.1088,129.0283,6.721452,0.0565600,0.63579286,351.9964,02/09.0/2026,2000,g 13.0,4.0
# From MPC 95208
C/2009 F4 (McNaught),e,79.2069,53.5069,260.5031,21842,0.0000003,0.99974921,0.0000,12/25.3785/2011,2000,g  3.0,4.0
# From MPC103843
C/2009 P1 (Garradd),e,106.2233,325.8428,90.4530,10226,0.0000010,0.99984949,0.0000,12/24.1677/2011,2000,g  4.0,4.0
# From MPC 68902
P/2009 Q5 (McNaught),e,40.9474,160.1805,209.1987,7.427495,0.0486901,0.60907209,291.4164,02/09.0/2026,2000,g 10.0,4.0
# From MPC105235
P/2009 WX51 (Catalina),e,9.5981,31.5212,118.2931,3.083034,0.1820693,0.73976139,348.1560,02/09.0/2026,2000,g 19.0,2.0
# From MPC 74247
P/2009 Y2 (Kowalski),e,29.9725,262.0770,172.2794,6.533991,0.0590115,0.63727817,342.5433,02/09.0/2026,2000,g 13.0,4.0
# From MPC 75008
P/2010 C1 (Scotti),e,9.1159,141.5824,2.8725,7.134068,0.0517247,0.26455018,310.6207,02/09.0/2026,2000,g  9.5,4.0
# From MPC 75008
P/2010 D2 (WISE),e,57.1399,319.8802,120.0642,6.712663,0.0566711,0.45152102,330.7701,02/09.0/2026,2000,g 16.0,4.0
# From MPC 72851
P/2010 H2 (Vales),e,14.2779,64.1893,128.0786,3.835422,0.1312152,0.19800171,44.1110,02/09.0/2026,2000,g  6.0,4.0
# From MPC 70361
P/2010 H3 (SOHO),e,23.1392,77.1662,26.0904,3.034479,0.1864567,0.98558073,0.0000,05/25.2487/2026,2000,g 20.0,2.0
# From MPEC 2024-GJ3
P/2010 H4 (Scotti),e,2.3177,44.7495,179.0822,6.620310,0.0578611,0.26745467,333.0061,02/09.0/2026,2000,g 10.5,4.0
# From MPC 74637
P/2010 H5 (Scotti),e,14.0532,24.3581,175.5050,7.167442,0.0513639,0.15666824,298.2719,02/09.0/2026,2000,g 13.0,2.0
# From MPC 84315
P/2010 JC81 (WISE),e,38.7358,30.8304,12.5250,8.103214,0.0427285,0.77782533,230.4238,02/09.0/2026,2000,g  9.0,4.0
# From MPC 83518
C/2010 L3 (Catalina),e,102.6417,38.3173,121.7480,35183,0.0000001,0.99971955,0.0000,11/12.5080/2010,2000,g  4.5,4.0
# From MPC115879
C/2010 S1 (LINEAR),h,05/20.5442/2013,125.4392,93.6700,118.7119,1.000692,5.907537,2000,3.5,4.0
# From MPC 74248
P/2010 T2 (PANSTARRS),e,7.8522,57.6808,349.8081,5.566249,0.0750516,0.32433430,54.0232,02/09.0/2026,2000,g 11.5,4.0
# From MPEC 2023-J95
C/2010 U3 (Boattini),h,02/28.9255/2019,55.5263,42.9949,88.1139,1.000268,8.441216,2000,1.0,4.0
# From MPC 79021
P/2010 UH55 (Spacewatch),e,8.0380,232.7916,225.3833,6.644950,0.0575396,0.56465614,311.4111,02/09.0/2026,2000,g 11.0,4.0
# From MPC 84021
P/2011 C2 (Gibbs),e,10.8987,11.9685,160.3266,7.405675,0.0489054,0.27177945,253.1528,02/09.0/2026,2000,g  9.0,4.0
# From MPC 89309
C/2011 F1 (LINEAR),e,56.3872,85.1952,192.5994,3653,0.0000045,0.99949710,0.0000,01/01.6484/2013,2000,g  5.0,4.0
# From MPC 79866
P/2011 FR143 (Lemmon),e,15.9609,190.8415,349.6023,6.887064,0.0545322,0.45302018,300.7040,02/09.0/2026,2000,g 14.0,2.0
# From MPC106343
C/2011 J2 (LINEAR),h,12/20.5434/2013,122.7974,164.0580,85.4825,1.000318,3.459871,2000,5.5,3.6
# From MPC 82317
P/2011 JB15 (Spacewatch-Boattini),e,19.1280,153.5822,110.6006,7.382670,0.0491342,0.31528217,253.9003,02/09.0/2026,2000,g  9.0,4.0
# From MPEC 2023-J95
C/2011 KP36 (Spacewatch),e,18.9552,173.4081,180.9663,39.37539,0.0039890,0.87489814,14.1505,02/09.0/2026,2000,g  4.5,4.0
# From MPC 87913
P/2011 N1 (ASH),e,35.7824,77.6241,330.5235,6.231085,0.0633663,0.54530504,316.2683,02/09.0/2026,2000,g 11.5,4.0
# From MPEC 2022-ED3
P/2011 P1 (McNaught),e,5.6500,4.2414,349.1292,7.464304,0.0483304,0.32599025,274.1210,02/09.0/2026,2000,g  9.0,4.0
# From MPC107047
C/2011 P2 (PANSTARRS),e,8.9826,203.9299,76.1974,9.765862,0.0322952,0.36527081,182.7914,02/09.0/2026,2000,g  8.5,4.0
# From MPEC 2022-HC2
P/2011 S1 (Gibbs),e,2.6875,218.8977,193.0440,8.601203,0.0390720,0.20039259,163.5967,02/09.0/2026,2000,g  8.0,4.0
# From MPEC 2023-UR6
P/2011 V1 (Boattini),e,7.3822,46.4903,269.5904,3.858240,0.1300530,0.54838307,350.4382,02/09.0/2026,2000,g 15.5,4.0
# From MPC 82718
P/2011 W1 (PANSTARRS),e,3.7157,161.7907,283.1123,4.675857,0.0974793,0.28826590,142.3558,02/09.0/2026,2000,g 11.5,4.0
# From MPC 79342
